OCEANSAT-2              
1 35931U 09051A   26168.19954604 -.00000132  00000+0 -64472-4 0  9991
2 35931  98.2324 155.0497 0015203 235.9155 124.0569 13.99664436879331
WORLDVIEW-2 (WV-2)      
1 35946U 09055A   26168.16379829  .00000086  00000+0  42910-4 0  9997
2 35946  98.4737 241.6137 0003707 208.0657 152.0331 14.37899407875643
SMOS                    
1 36036U 09059A   26168.05053753  .00000187  00000+0  73438-4 0  9996
2 36036  98.4424 355.3874 0001326  88.5935 271.5405 14.39772531873437
YAOGAN-7                
1 36110U 09069A   26167.95338927  .00000404  00000+0  63086-4 0  9997
2 36110  98.0072  53.8219 0025588  42.4680 317.8504 14.78009665889592
TANDEM-X                
1 36605U 10030A   26166.54501978  .00000388  00000+0  21672-4 0  9994
2 36605  97.4452 174.2763 0001884  86.9240 273.2210 15.19149123886390
CARTOSAT-2B             
1 36795U 10035A   26168.20434726  .00000139  00000+0  26100-4 0  9995
2 36795  97.9951 218.7539 0011182 183.6891 176.4239 14.78660521859853
YAOGAN-10               
1 36834U 10038A   26168.22941648  .00001167  00000+0  14198-3 0  9995
2 36834  97.8969 191.6331 0001651  86.4157  44.0787 14.85347994857219
COSMO-SKYMED 4          
1 37216U 10060A   26168.17371343 -.00000269  00000+0 -27232-4 0  9996
2 37216  97.8879 351.7732 0001408  80.1411 279.9961 14.82151559844566
RESOURCESAT-2           
1 37387U 11015A   26168.15939124  .00000077  00000+0  55440-4 0  9998
2 37387  98.7644 235.6014 0010206 255.5899 104.4145 14.21606492786174
HAIYANG-2A              
1 37781U 11043A   26168.18397642  .00000207  00000+0  26478-3 0  9996
2 37781  99.3386 170.8602 0005978  91.5681 268.6153 13.74387316746651
RASAT                   
1 37791U 11044D   26168.18229602  .00000476  00000+0  90986-4 0  9992
2 37791  98.0583 259.5789 0020187 188.7413 258.3136 14.68166525793187
SRMSAT                  
1 37841U 11058D   26168.08915448  .00000356  00000+0  49079-4 0  9996
2 37841  19.9723  60.0600 0011791 202.5356 269.2197 14.11575544757800
PLEIADES 1A             
1 38012U 11076F   26168.19867560  .00000178  00000+0  48009-4 0  9994
2 38012  98.1981 243.3012 0001654  95.2162 349.8129 14.58570817771993
ZIYUAN 1-02C (ZY 1-02C) 
1 38038U 11079A   26168.22055900  .00000244  00000+0  94595-4 0  9991
2 38038  98.4074 235.5282 0005479 316.6332 135.4893 14.38214626759216
ARIRANG-3 (KOMPSAT-3)   
1 38338U 12025B   26168.16957179  .00000338  00000+0  76341-4 0  9991
2 38338  98.1171 125.6298 0006674 109.3995 250.7928 14.62206107751348
EXACTVIEW-1 (ADS-1B)    
1 38709U 12039C   26167.88972926  .00000093  00000+0  59661-4 0  9997
2 38709  98.9778 285.2732 0011154 167.1754 192.9710 14.24984491722667
SPOT 6                  
1 38755U 12047A   26168.19782880  .00000117  00000+0  35097-4 0  9994
2 38755  98.2122 235.5065 0001496  93.1055 267.0316 14.58562801733056
PLEIADES 1B             
1 39019U 12068A   26168.14814593  .00000231  00000+0  59445-4 0  9993
2 39019  98.1952 243.1999 0001660  92.0630 268.0759 14.58560541720845
GOKTURK 2               
1 39030U 12073A   26168.14860700  .00000166  00000+0  31212-4 0  9992
2 39030  97.6810   5.5819 0001609  54.6643 305.4717 14.75542324724502
LANDSAT 8               
1 39084U 13008A   26168.16207490  .00000263  00000+0  68428-4 0  9990
2 39084  98.2302 238.2976 0001357  93.7395 266.3959 14.57094508697891
SARAL                   
1 39086U 13009A   26168.18057381  .00000061  00000+0  38561-4 0  9998
2 39086  98.5556 354.7479 0000710 309.4687  50.6434 14.32855928695605
GAOFEN-1                
1 39150U 13018A   26168.19854122  .00000048  00000+0  14241-4 0  9993
2 39150  97.9098 240.2659 0015681 266.4093  93.5324 14.76535697708241
VNREDSAT 1              
1 39160U 13021B   26168.15732285  .00000404  00000+0  84073-4 0  9995
2 39160  97.9080 221.5748 0001715  89.3921 270.7479 14.64856807700281
ARIRANG-5 (KOMPSAT-5)   
1 39227U 13042A   26168.16610233  .00000717  00000+0  55591-4 0  9991
2 39227  97.6200 354.8668 0005293 123.2768 236.8966 15.04492086703859
SKYSAT-A                
1 39418U 13066C   26168.05892038  .00002204  00000+0  12799-3 0  9997
2 39418  97.3812 217.4603 0020104 318.0105  41.9584 15.12975925688464
DUBAISAT-2              
1 39419U 13066D   26168.20331488  .00002672  00000+0  16722-3 0  9991
2 39419  97.4556 158.3474 0012351  40.5288 319.6859 15.10180046686394
GPM-CORE                
1 39574U 14009C   26168.14468122  .00009084  00000+0  19918-3 0  9994
2 39574  64.9728 308.2688 0011855 251.6213 108.3638 15.44570140697801
SENTINEL-1A             
1 39634U 14016A   26168.02463800  .00000106  00000+0  32216-4 0  9997
2 39634  98.1770 175.5594 0001405  83.8928 276.2432 14.59199771649999
KAZEOSAT 1              
1 39731U 14024A   26168.16046302  .00000179  00000+0  67386-4 0  9999
2 39731  98.3211 240.6080 0001360  74.7790 285.3550 14.42080247638550
ALOS-2                  
1 39766U 14029A   26168.13917128  .00000517  00000+0  76124-4 0  9998
2 39766  97.9226 265.3027 0001639  91.6971 268.4429 14.79468085651576
KAZEOSAT 2              
1 40010U 14033A   26168.16267766  .00000202  00000+0  29202-4 0  9992
2 40010  97.5397   7.7757 0007901 329.5411  30.5345 14.85468218648951
