OBJECT_NAME,OBJECT_ID,EPOCH,MEAN_MOTION,ECCENTRICITY,INCLINATION,RA_OF_ASC_NODE,ARG_OF_PERICENTER,MEAN_ANOMALY,EPHEMERIS_TYPE,CLASSIFICATION_TYPE,NORAD_CAT_ID,ELEMENT_SET_NO,REV_AT_EPOCH,BSTAR,MEAN_MOTION_DOT,MEAN_MOTION_DDOT
OCEANSAT-2,2009-051A,2026-06-17T04:47:20.777856,13.99664436,.0015203,98.2324,155.0497,235.9155,124.0569,0,U,35931,999,87933,-.64472E-4,-.132E-5,0
WORLDVIEW-2 (WV-2),2009-055A,2026-06-17T03:55:52.172256,14.37899407,.0003707,98.4737,241.6137,208.0657,152.0331,0,U,35946,999,87564,.4291E-4,.86E-6,0
SMOS,2009-059A,2026-06-17T01:12:46.442592,14.39772531,.0001326,98.4424,355.3874,88.5935,271.5405,0,U,36036,999,87343,.73438E-4,.187E-5,0
YAOGAN-7,2009-069A,2026-06-16T22:52:52.832928,14.78009665,.0025588,98.0072,53.8219,42.4680,317.8504,0,U,36110,999,88959,.63086E-4,.404E-5,0
TANDEM-X,2010-030A,2026-06-15T13:04:49.708992,15.19149123,.0001884,97.4452,174.2763,86.9240,273.2210,0,U,36605,999,88639,.21672042E-4,.388E-5,0
CARTOSAT-2B,2010-035A,2026-06-17T04:54:15.603264,14.78660521,.0011182,97.9951,218.7539,183.6891,176.4239,0,U,36795,999,85985,.261E-4,.139E-5,0
YAOGAN-10,2010-038A,2026-06-17T05:30:21.583872,14.85347994,.0001651,97.8969,191.6331,86.4157,44.0787,0,U,36834,999,85721,.14198E-3,.1167E-4,0
COSMO-SKYMED 4,2010-060A,2026-06-17T04:10:08.840352,14.82151559,.0001408,97.8879,351.7732,80.1411,279.9961,0,U,37216,999,84456,-.27232E-4,-.269E-5,0
RESOURCESAT-2,2011-015A,2026-06-17T03:49:31.403136,14.21606492,.0010206,98.7644,235.6014,255.5899,104.4145,0,U,37387,999,78617,.5544E-4,.77E-6,0
HAIYANG-2A,2011-043A,2026-06-17T04:24:55.562688,13.74387316,.0005978,99.3386,170.8602,91.5681,268.6153,0,U,37781,999,74665,.26478E-3,.207E-5,0
RASAT,2011-044D,2026-06-17T04:22:30.376128,14.68166525,.0020187,98.0583,259.5789,188.7413,258.3136,0,U,37791,999,79318,.90986E-4,.476E-5,0
SRMSAT,2011-058D,2026-06-17T02:08:22.947072,14.11575544,.0011791,19.9723,60.0600,202.5356,269.2197,0,U,37841,999,75780,.49079E-4,.356E-5,0
PLEIADES 1A,2011-076F,2026-06-17T04:46:05.571840,14.58570817,.0001654,98.1981,243.3012,95.2162,349.8129,0,U,38012,999,77199,.48009E-4,.178E-5,0
ZIYUAN 1-02C (ZY 1-02C),2011-079A,2026-06-17T05:17:36.297600,14.38214626,.0005479,98.4074,235.5282,316.6332,135.4893,0,U,38038,999,75921,.94595E-4,.244E-5,0
ARIRANG-3 (KOMPSAT-3),2012-025B,2026-06-17T04:04:11.002656,14.62206107,.0006674,98.1171,125.6298,109.3995,250.7928,0,U,38338,999,75134,.76341E-4,.338E-5,0
EXACTVIEW-1 (ADS-1B),2012-039C,2026-06-16T21:21:12.608064,14.24984491,.0011154,98.9778,285.2732,167.1754,192.9710,0,U,38709,999,72266,.59661E-4,.93E-6,0
SPOT 6,2012-047A,2026-06-17T04:44:52.408320,14.58562801,.0001496,98.2122,235.5065,93.1055,267.0316,0,U,38755,999,73305,.35097E-4,.117E-5,0
PLEIADES 1B,2012-068A,2026-06-17T03:33:19.808352,14.58560541,.000166,98.1952,243.1999,92.0630,268.0759,0,U,39019,999,72084,.59445E-4,.231E-5,0
GOKTURK 2,2012-073A,2026-06-17T03:33:59.644800,14.75542324,.0001609,97.6810,5.5819,54.6643,305.4717,0,U,39030,999,72450,.31212E-4,.166E-5,0
LANDSAT 8,2013-008A,2026-06-17T03:53:23.271360,14.57094508,.0001357,98.2302,238.2976,93.7395,266.3959,0,U,39084,999,69789,.68428E-4,.263E-5,0
SARAL,2013-009A,2026-06-17T04:20:01.577184,14.32855928,.000071,98.5556,354.7479,309.4687,50.6434,0,U,39086,999,69560,.38561E-4,.61E-6,0
GAOFEN-1,2013-018A,2026-06-17T04:45:53.961408,14.76535697,.0015681,97.9098,240.2659,266.4093,93.5324,0,U,39150,999,70824,.14241E-4,.48E-6,0
VNREDSAT 1,2013-021B,2026-06-17T03:46:32.694240,14.64856807,.0001715,97.9080,221.5748,89.3921,270.7479,0,U,39160,999,70028,.84073E-4,.404E-5,0
ARIRANG-5 (KOMPSAT-5),2013-042A,2026-06-17T03:59:11.241312,15.04492086,.0005293,97.6200,354.8668,123.2768,236.8966,0,U,39227,999,70385,.55591E-4,.717E-5,0
SKYSAT-A,2013-066C,2026-06-17T01:24:50.720832,15.12975925,.0020104,97.3812,217.4603,318.0105,41.9584,0,U,39418,999,68846,.12799E-3,.2204E-4,0
DUBAISAT-2,2013-066D,2026-06-17T04:52:46.405632,15.10180046,.0012351,97.4556,158.3474,40.5288,319.6859,0,U,39419,999,68639,.16722E-3,.2672E-4,0
GPM-CORE,2014-009C,2026-06-17T03:28:20.457408,15.44570140,.0011855,64.9728,308.2688,251.6213,108.3638,0,U,39574,999,69780,.19918E-3,.9084E-4,0
SENTINEL-1A,2014-016A,2026-06-17T00:35:28.723200,14.59199771,.0001405,98.1770,175.5594,83.8928,276.2432,0,U,39634,999,64999,.32216E-4,.106E-5,0
KAZEOSAT 1,2014-024A,2026-06-17T03:51:04.004928,14.42080247,.000136,98.3211,240.6080,74.7790,285.3550,0,U,39731,999,63855,.67386E-4,.179E-5,0
ALOS-2,2014-029A,2026-06-17T03:20:24.398592,14.79468085,.0001639,97.9226,265.3027,91.6971,268.4429,0,U,39766,999,65157,.76124E-4,.517E-5,0
KAZEOSAT 2,2014-033A,2026-06-17T03:54:15.349824,14.85468218,.0007901,97.5397,7.7757,329.5411,30.5345,0,U,40010,999,64895,.29202E-4,.202E-5,0
